NORAD_CAT_ID,OBJECT_NAME,OBJECT_TYPE,EPOCH,MEAN_MOTION,ECCENTRICITY,INCLINATION,RA_OF_ASC_NODE,ARG_OF_PERICENTER,MEAN_ANOMALY,BSTAR,MEAN_MOTION_DOT,MEAN_MOTION_DDOT,TLE_LINE0,TLE_LINE1,TLE_LINE2,SEMIMAJOR_AXIS,PERIOD,APOGEE,PERIGEE,DECAYED
53422.0,STARLINK-4546,PAYLOAD,2023-02-27 04:35:29,15.08835781,0.0001546,53.2169,41.3918,91.295,268.822,4.291e-05,3.95e-06,0.0,0 STARLINK-4546,1 53422U 22097AL  23058.19131471  .00000395  00000-0  42910-4 0  9998,2 53422  53.2169  41.3918 0001546  91.2950 268.8220 15.08835781 31123,6917.893,95.438,540.828,538.689,0.0
53422.0,STARLINK-4546,PAYLOAD,2023-02-27 09:21:38,15.08846205,0.0001324,53.2167,40.4986,94.6843,265.4301,0.00021942,3.206e-05,0.0,0 STARLINK-4546,1 53422U 22097AL  23058.39003071  .00003206  00000-0  21942-3 0  9999,2 53422  53.2167  40.4986 0001324  94.6843 265.4301 15.08846205 31157,6917.861,95.437,540.642,538.81,0.0
53422.0,STARLINK-4546,PAYLOAD,2023-02-27 15:43:10,15.08849373,0.0001134,53.2165,39.3076,102.9022,257.2097,0.00025892,3.836e-05,0.0,0 STARLINK-4546,1 53422U 22097AL  23058.65498794  .00003836  00000-0  25892-3 0  9995,2 53422  53.2165  39.3076 0001134 102.9022 257.2097 15.08849373 31670,6917.852,95.437,540.501,538.932,0.0
53422.0,STARLINK-4546,PAYLOAD,2023-02-28 10:47:47,15.08888589,0.0001185,53.2156,35.7401,107.6414,252.4708,0.0020494,0.00032522,0.0,0 STARLINK-4546,1 53422U 22097AL  23059.44985874  .00032522  00000-0  20494-2 0  9999,2 53422  53.2156  35.7401 0001185 107.6414 252.4708 15.08888589 31796,6917.732,95.434,540.417,538.777,0.0
53422.0,STARLINK-4546,PAYLOAD,2023-02-28 15:33:58,15.08817575,0.0001277,53.216,34.8487,101.6198,258.4938,-0.0010111,-0.00016333,0.0,0 STARLINK-4546,1 53422U 22097AL  23059.64859196 -.00016333  00000-0 -10111-2 0  9997,2 53422  53.2160  34.8487 0001277 101.6198 258.4938 15.08817575 31349,6917.949,95.439,540.697,538.931,0.0
53422.0,STARLINK-4546,PAYLOAD,2023-03-01 07:27:51,15.08818026,0.0001651,53.2157,31.8747,97.6458,262.4722,0.0020953,0.00033196,0.0,0 STARLINK-4546,1 53422U 22097AL  23060.31100849  .00033196  00000-0  20953-2 0  9996,2 53422  53.2157  31.8747 0001651  97.6458 262.4722 15.08818026 31449,6917.948,95.439,540.955,538.67,0.0
53422.0,STARLINK-4546,PAYLOAD,2023-03-01 17:00:10,15.08842789,0.000171,53.2157,30.0904,98.7606,261.358,0.0021477,0.00034061,0.0,0 STARLINK-4546,1 53422U 22097AL  23060.70845124  .00034061  00000-0  21477-2 0  9995,2 53422  53.2157  30.0904 0001710  98.7606 261.3580 15.08842789 31980,6917.872,95.437,540.92,538.554,0.0
53422.0,STARLINK-4546,PAYLOAD,2023-03-02 04:07:51,15.08875211,0.0001718,53.2159,28.0086,99.839,260.2796,0.0021042,0.00033392,0.0,0 STARLINK-4546,1 53422U 22097AL  23061.17212435  .00033392  00000-0  21042-2 0  9994,2 53422  53.2159  28.0086 0001718  99.8390 260.2796 15.08875211 32052,6917.773,95.435,540.826,538.449,0.0
53422.0,STARLINK-4546,PAYLOAD,2023-03-03 07:09:23,15.08890118,0.0001791,53.2165,22.954,87.5873,272.5324,0.0021289,0.00033803,0.0,0 STARLINK-4546,1 53422U 22097AL  23062.29819069  .00033803  00000-0  21289-2 0  9994,2 53422  53.2165  22.9540 0001791  87.5873 272.5324 15.08890118 31749,6917.727,95.434,540.831,538.353,0.0
53422.0,STARLINK-4546,PAYLOAD,2023-03-04 07:00:09,15.0889878,0.0001328,53.2173,18.4918,89.0397,271.0747,0.0027334,0.00043553,0.0,0 STARLINK-4546,1 53422U 22097AL  23063.29177675  .00043553  00000-0  27334-2 0  9995,2 53422  53.2173  18.4918 0001328  89.0397 271.0747 15.08898780 31893,6917.701,95.434,540.484,538.647,0.0
53422.0,STARLINK-4546,PAYLOAD,2023-03-04 21:18:38,15.08836081,0.0002219,53.217,15.815,107.9507,252.1727,0.001688,0.00026676,0.0,0 STARLINK-4546,1 53422U 22097AL  23063.88794640  .00026676  00000-0  16880-2 0  9998,2 53422  53.2170  15.8150 0002219 107.9507 252.1727 15.08836081 31986,6917.892,95.438,541.292,538.222,0.0
53422.0,STARLINK-4546,PAYLOAD,2023-03-05 02:04:48,15.08827842,0.000157,53.2171,14.9222,91.0554,269.0618,0.00033849,5.101e-05,0.0,0 STARLINK-4546,1 53422U 22097AL  23064.08666870  .00005101  00000-0  33849-3 0  9999,2 53422  53.2171  14.9222 0001570  91.0554 269.0618 15.08827842 32017,6917.918,95.438,540.869,538.696,0.0
53422.0,STARLINK-4546,PAYLOAD,2023-03-06 05:06:21,15.08869435,0.0001196,53.2166,9.8691,81.7301,278.3827,0.0018572,0.00029417,0.0,0 STARLINK-4546,1 53422U 22097AL  23065.21275190  .00029417  00000-0  18572-2 0  9997,2 53422  53.2166   9.8691 0001196  81.7301 278.3827 15.08869435 32181,6917.79,95.436,540.483,538.828,0.0
53422.0,STARLINK-4546,PAYLOAD,2023-03-06 19:24:50,15.08834532,0.0001943,53.217,7.1954,82.8031,277.3182,-1.1439e-05,-4.7e-06,0.0,0 STARLINK-4546,1 53422U 22097AL  23065.80891535 -.00000470  00000-0 -11439-4 0  9996,2 53422  53.2170   7.1954 0001943  82.8031 277.3182 15.08834532 32274,6917.897,95.438,541.106,538.418,0.0
53422.0,STARLINK-4546,PAYLOAD,2023-03-07 06:32:32,15.08846384,8.39e-05,53.2157,5.1111,53.9833,306.1237,0.0020001,0.00031693,0.0,0 STARLINK-4546,1 53422U 22097AL  23066.27259889  .00031693  00000-0  20001-2 0  9990,2 53422  53.2157   5.1111 0000839  53.9833 306.1237 15.08846384 32825,6917.861,95.437,540.306,539.145,0.0
53422.0,STARLINK-4546,PAYLOAD,2023-03-08 04:47:56,15.0887453,6.1e-05,53.2162,0.9484,87.1267,272.9795,0.0016555,0.00026182,0.0,0 STARLINK-4546,1 53422U 22097AL  23067.19995529  .00026182  00000-0  16555-2 0  9996,2 53422  53.2162   0.9484 0000610  87.1267 272.9795 15.08874530 32489,6917.775,95.435,540.062,539.218,0.0
53422.0,STARLINK-4546,PAYLOAD,2023-03-08 19:06:24,15.08843676,0.0001336,53.2165,358.2714,85.5025,274.612,0.00060257,9.316e-05,0.0,0 STARLINK-4546,1 53422U 22097AL  23067.79612196  .00009316  00000-0  60257-3 0  9997,2 53422  53.2165 358.2714 0001336  85.5025 274.6120 15.08843676 33059,6917.869,95.437,540.658,538.81,0.0
53422.0,STARLINK-4546,PAYLOAD,2023-03-08 23:52:34,15.08854413,9.26e-05,53.2165,357.3781,88.8052,271.3046,0.0012802,0.00020153,0.0,0 STARLINK-4546,1 53422U 22097AL  23067.99484184  .00020153  00000-0  12802-2 0  9997,2 53422  53.2165 357.3781 0000926  88.8052 271.3046 15.08854413 32605,6917.836,95.437,540.342,539.061,0.0
53422.0,STARLINK-4546,PAYLOAD,2023-03-09 18:57:12,15.08859713,0.0001229,53.2159,353.8132,49.9259,310.1841,0.0017623,0.00027885,0.0,0 STARLINK-4546,1 53422U 22097AL  23068.78972487  .00027885  00000-0  17623-2 0  9998,2 53422  53.2159 353.8132 0001229  49.9259 310.1841 15.08859713 32729,6917.82,95.436,540.535,538.835,0.0
53422.0,STARLINK-4546,PAYLOAD,2023-03-10 18:47:59,15.08830912,0.0001572,53.2155,349.3518,66.8107,293.305,0.0011655,0.00018305,0.0,0 STARLINK-4546,1 53422U 22097AL  23069.78333224  .00018305  00000-0  11655-2 0  9995,2 53422  53.2155 349.3518 0001572  66.8107 293.3050 15.08830912 32874,6917.908,95.438,540.861,538.686,0.0
53422.0,STARLINK-4546,PAYLOAD,2023-03-11 01:09:32,15.08817578,0.0001149,53.2166,348.1629,95.5258,264.5865,-0.00016452,-2.904e-05,0.0,0 STARLINK-4546,1 53422U 22097AL  23070.04829396 -.00002904  00000-0 -16452-3 0  9997,2 53422  53.2166 348.1629 0001149  95.5258 264.5865 15.08817578 32914,6917.949,95.439,540.609,539.019,0.0
53422.0,STARLINK-4546,PAYLOAD,2023-03-12 02:35:42,15.08858866,8.87e-05,53.2161,343.4037,85.1689,274.9405,0.0010933,0.00017164,0.0,0 STARLINK-4546,1 53422U 22097AL  23071.10812727  .00017164  00000-0  10933-2 0  9994,2 53422  53.2161 343.4037 0000887  85.1689 274.9405 15.08858866 33079,6917.823,95.436,540.301,539.074,0.0
53422.0,STARLINK-4546,PAYLOAD,2023-03-12 16:54:10,15.08848793,6.84e-05,53.2168,340.7224,117.7988,242.3073,7.321e-05,8.78e-06,0.0,0 STARLINK-4546,1 53422U 22097AL  23071.70428635  .00000878  00000-0  73210-4 0  9994,2 53422  53.2168 340.7224 0000684 117.7988 242.3073 15.08848793 33161,6917.854,95.437,540.192,539.245,0.0
53422.0,STARLINK-4546,PAYLOAD,2023-03-13 04:01:51,15.08873214,5.42e-05,53.2168,338.6464,111.8908,248.2142,0.0015158,0.0002394,0.0,0 STARLINK-4546,1 53422U 22097AL  23072.16795817  .00023940  00000-0  15158-2 0  9994,2 53422  53.2168 338.6464 0000542 111.8908 248.2142 15.08873214 33239,6917.779,95.435,540.019,539.269,0.0
53422.0,STARLINK-4546,PAYLOAD,2023-03-13 21:31:07,15.08835745,0.0001282,53.216,335.3711,92.6803,267.4336,0.0010231,0.0001603,0.0,0 STARLINK-4546,1 53422U 22097AL  23072.89661115  .00016030  00000-0  10231-2 0  9996,2 53422  53.2160 335.3711 0001282  92.6803 267.4336 15.08835745 33349,6917.893,95.438,540.645,538.872,0.0
53422.0,STARLINK-4546,PAYLOAD,2023-03-14 02:17:16,15.08843903,0.0001455,53.2161,334.4797,89.3793,270.7366,0.0013425,0.00021145,0.0,0 STARLINK-4546,1 53422U 22097AL  23073.09533180  .00021145  00000-0  13425-2 0  9990,2 53422  53.2161 334.4797 0001455  89.3793 270.7366 15.08843903 33858,6917.868,95.437,540.74,538.727,0.0
53422.0,STARLINK-4546,PAYLOAD,2023-03-15 03:43:26,15.08888261,0.0001478,53.2155,329.7254,99.2701,260.8458,0.0022553,0.00035836,0.0,0 STARLINK-4546,1 53422U 22097AL  23074.15516327  .00035836  00000-0  22553-2 0  9996,2 53422  53.2155 329.7254 0001478  99.2701 260.8458 15.08888261 33533,6917.733,95.435,540.62,538.575,0.0
53422.0,STARLINK-4546,PAYLOAD,2023-03-15 21:12:40,15.08848023,0.0001035,53.2149,326.4538,122.3115,237.7977,0.001493,0.00023558,0.0,0 STARLINK-4546,1 53422U 22097AL  23074.88380558  .00023558  00000-0  14930-2 0  9999,2 53422  53.2149 326.4538 0001035 122.3115 237.7977 15.08848023 34128,6917.856,95.437,540.437,539.005,0.0
53422.0,STARLINK-4546,PAYLOAD,2023-03-16 05:09:36,15.08861306,0.0001225,53.2155,324.9674,80.0331,280.08,0.0010343,0.00016221,0.0,0 STARLINK-4546,1 53422U 22097AL  23075.21500403  .00016221  00000-0  10343-2 0  9993,2 53422  53.2155 324.9674 0001225  80.0331 280.0800 15.08861306 33696,6917.815,95.436,540.528,538.833,0.0
53422.0,STARLINK-4546,PAYLOAD,2023-03-16 22:38:52,15.08800445,0.0001158,53.2153,321.6951,71.1096,289.0022,0.0003933,5.97e-05,0.0,0 STARLINK-4546,1 53422U 22097AL  23075.94366658  .00005970  00000-0  39330-3 0  9992,2 53422  53.2153 321.6951 0001158  71.1096 289.0022 15.08800445 33805,6918.001,95.44,540.667,539.065,0.0
